ONEWEB-0102             
1 47258U 20100A   25017.23786207 -.00000316  00000+0 -91409-3 0  9996
2 47258  87.8866  93.4198 0001987 105.0469 255.0880 13.12441651197053
ONEWEB-0109             
1 47259U 20100B   25017.24598472 -.00000158  00000+0 -47539-3 0  9992
2 47259  87.8867  93.3854 0001904 106.5352 253.5985 13.12443421196885
ONEWEB-0110             
1 47260U 20100C   25017.57689201  .00000490  00000+0  13257-2 0  9997
2 47260  87.8863  93.3127 0001870 108.0147 252.1185 13.12441978197093
ONEWEB-0111             
1 47261U 20100D   25017.60769890 -.00000329  00000+0 -94925-3 0  9990
2 47261  87.8867  93.3132 0001878 104.9088 255.2248 13.12440341196930
ONEWEB-0114             
1 47262U 20100E   25017.56229351  .00000207  00000+0  53989-3 0  9997
2 47262  87.8862  93.3289 0002253 103.8424 256.2955 13.12443551196885
ONEWEB-0117             
1 47263U 20100F   25017.24922703 -.00000025  00000+0 -10503-3 0  9999
2 47263  87.8864  93.3755 0001778 104.0070 256.1257 13.12444139196851
ONEWEB-0118             
1 47264U 20100G   25017.20545293  .00000357  00000+0  95632-3 0  9993
2 47264  87.8867  93.3870 0002094  96.6368 263.4999 13.12443158197047
ONEWEB-0119             
1 47265U 20100H   25017.61418445 -.00000399  00000+0 -11440-2 0  9999
2 47265  87.8867  93.3445 0001830 104.8609 255.2722 13.12440716197076
